ONEWEB-0578             
1 56067U 23043X   25099.59025480  .00000135  00000+0  29541-3 0  9996
2 56067  87.9295 330.4390 0001817  87.3406 272.7936 13.21823966100955
ONEWEB-0579             
1 56068U 23043Y   25099.58079522  .00000186  00000+0  41837-3 0  9990
2 56068  87.9298 330.4289 0001856  73.4593 286.6745 13.21826727100963
ONEWEB-0581             
1 56069U 23043Z   25099.58761303  .00000144  00000+0  34325-3 0  9994
2 56069  87.9044 315.2322 0002205  84.1127 276.0255 13.16594264101909
ONEWEB-0609             
1 56070U 23043AA  25099.58092559  .00000043  00000+0  79183-4 0  9996
2 56070  87.9108 345.6203 0001676  78.8295 281.3024 13.15549313 99424
ONEWEB-0613             
1 56071U 23043AB  25099.57616710  .00000000  00000+0 -33110-4 0  9991
2 56071  87.9111 345.6292 0001795  71.2800 288.8525 13.15549985 99421
ONEWEB-0630             
1 56072U 23043AC  25099.41930330  .00000022  00000+0  24017-4 0  9991
2 56072  87.9110 345.6405 0001730  69.5586 290.5730 13.15548921 99390
ONEWEB-0632             
1 56073U 23043AD  25099.11032199  .00000014  00000+0  24043-5 0  9996
2 56073  87.9113 345.7215 0002022  78.5565 281.5793 13.15549858 99351
